SWARM B                 
1 39451U 13067A   26198.31232697  .00001946  00000+0  68447-4 0  9990
2 39451  87.7461 333.1655 0002255  84.3012 275.8494 15.28725221687842
SWARM A                 
1 39452U 13067B   26198.21704719  .00005800  00000+0  97516-4 0  9991
2 39452  87.3296  45.0739 0003334  92.8557 267.3086 15.51482334710902
SWARM C                 
1 39453U 13067C   26198.21695481  .00005763  00000+0  96897-4 0  9996
2 39453  87.3295  43.6548 0003329  93.0828 267.0815 15.51481599710866
BRITE-CA1 (TORONTO)     
1 40020U 14033L   26197.93307811  .00000506  00000+0  83590-4 0  9993
2 40020  97.9774 326.3188 0078575 180.6925 179.4187 14.72724463646592
OCO 2                   
1 40059U 14035A   26198.23250833  .00000176  00000+0  49031-4 0  9997
2 40059  98.2020 139.0694 0001431  81.2321 278.9040 14.57133120640422
BRITE-PL2 (HEWELIUSZ)   
1 40119U 14049B   26197.89668719  .00000489  00000+0  50495-4 0  9999
2 40119  97.9120 310.1310 0014171  16.6624 343.5058 14.94689258645888
MMS 1                   
1 40482U 15011A   26198.25002315 -.00001355  00000+0  00000+0 0  9993
2 40482  72.4730 348.4255 8302806 168.1015 125.0935  0.28341126  1365
MMS 2                   
1 40483U 15011B   26198.25002315 -.00001356  00000+0  00000+0 0  9995
2 40483  72.4769 348.4245 8305619 168.1043 125.0805  0.28341068  1364
MMS 3                   
1 40484U 15011C   26198.25002315 -.00001355  00000+0  00000+0 0  9995
2 40484  72.4767 348.4363 8303989 168.1120 125.0546  0.28341077  1337
MMS 4                   
1 40485U 15011D   26198.25002315 -.00001355  00000+0  00000+0 0  9996
2 40485  72.4722 348.4198 8303940 168.1219 125.0500  0.28341107  1368
ASTROSAT                
1 40930U 15052A   26198.29677254  .00001073  00000+0  49031-4 0  9998
2 40930   5.9973 298.6240 0007405 106.2236 253.8707 14.82553804584300
DAMPE                   
1 41173U 15078A   26198.30228995  .00000533  00000+0  20452-4 0  9998
2 41173  97.4558 203.9193 0011360 337.8633  22.2116 15.30856255589159
PISAT                   
1 41784U 16059B   26197.97814707  .00000428  00000+0  80498-4 0  9999
2 41784  97.8192 197.1528 0030496 109.3961 251.0545 14.69031411524111
HXMT (HUIYAN)           
1 42758U 17034A   26197.99571619  .00002246  00000+0  11653-3 0  9995
2 42758  43.0154  17.0306 0032082 332.0044  27.9078 15.18698236502192
FLYING LAPTOP           
1 42831U 17042G   26198.31286390  .00001804  00000+0  14415-3 0  9990
2 42831  97.4816 352.7137 0019597  25.7451 334.4745 15.01320786490970
ZHANGHENG 1-01 (CSES-1) 
1 43194U 18015C   26198.27274365  .00003815  00000+0  17672-3 0  9990
2 43194  97.6896   4.5326 0016572 157.9595 202.2356 15.20623747469219
SALSAT                  
1 46495U 20068K   26197.96833821  .00003909  00000+0  13663-3 0  9991
2 46495  97.8858 202.8562 0009384 186.4299 173.6821 15.30186484319914
IXPE                    
1 49954U 21121A   26198.25002315  .00006444  00000+0  32538-3 0  9993
2 49954   0.2312  89.5820 0007345 177.1637 255.3058 15.10497845  5731
SMILE                   
1 69123U 26109A   26194.95939329  .00000936  00000+0  00000+0 0  9996
2 69123  70.0512 206.6048 8313707 286.9544   0.1879  0.47500629    65
