OBJECT_NAME,OBJECT_ID,EPOCH,MEAN_MOTION,ECCENTRICITY,INCLINATION,RA_OF_ASC_NODE,ARG_OF_PERICENTER,MEAN_ANOMALY,EPHEMERIS_TYPE,CLASSIFICATION_TYPE,NORAD_CAT_ID,ELEMENT_SET_NO,REV_AT_EPOCH,BSTAR,MEAN_MOTION_DOT,MEAN_MOTION_DDOT
SWARM B,2013-067A,2026-07-17T07:29:45.050208,15.28725221,.00022555,87.7461,333.1655,84.3012,275.8494,0,U,39451,999,68784,.68446917E-4,.1946E-4,0
SWARM A,2013-067B,2026-07-17T05:12:32.877216,15.51482334,.00033341,87.3296,45.0739,92.8557,267.3086,0,U,39452,999,71090,.97516287E-4,.58E-4,0
SWARM C,2013-067C,2026-07-17T05:12:24.895584,15.51481599,.00033295,87.3295,43.6548,93.0828,267.0815,0,U,39453,999,71086,.96896739E-4,.5763E-4,0
BRITE-CA1 (TORONTO),2014-033L,2026-07-16T22:23:37.948704,14.72724463,.00785752,97.9774,326.3188,180.6925,179.4187,0,U,40020,999,64659,.83590365E-4,.506E-5,0
OCO 2,2014-035A,2026-07-17T05:34:48.719712,14.57133120,.00014315,98.2020,139.0694,81.2321,278.9040,0,U,40059,999,64042,.49030855E-4,.176E-5,0
BRITE-PL2 (HEWELIUSZ),2014-049B,2026-07-16T21:31:13.773216,14.94689258,.00141718,97.9120,310.1310,16.6624,343.5058,0,U,40119,999,64588,.50494606E-4,.489E-5,0
MMS 1,2015-011A,2026-07-17T06:00:02.000160,0.28341126,.83028067,72.4730,348.4255,168.1015,125.0935,0,U,40482,999,136,0,-.1355E-4,0
MMS 2,2015-011B,2026-07-17T06:00:02.000160,0.28341068,.83056193,72.4769,348.4245,168.1043,125.0805,0,U,40483,999,136,0,-.1356E-4,0
MMS 3,2015-011C,2026-07-17T06:00:02.000160,0.28341077,.8303989,72.4767,348.4363,168.1120,125.0546,0,U,40484,999,133,0,-.1355E-4,0
MMS 4,2015-011D,2026-07-17T06:00:02.000160,0.28341107,.83039408,72.4722,348.4198,168.1219,125.0500,0,U,40485,999,136,0,-.1355E-4,0
ASTROSAT,2015-052A,2026-07-17T07:07:21.147456,14.82553804,.00074055,5.9973,298.6240,106.2236,253.8707,0,U,40930,999,58430,.49031267E-4,.1073E-4,0
DAMPE,2015-078A,2026-07-17T07:15:17.851680,15.30856255,.00113602,97.4558,203.9193,337.8633,22.2116,0,U,41173,999,58915,.20452385E-4,.533E-5,0
PISAT,2016-059B,2026-07-16T23:28:31.906848,14.69031411,.00304961,97.8192,197.1528,109.3961,251.0545,0,U,41784,999,52411,.80497908E-4,.428E-5,0
HXMT (HUIYAN),2017-034A,2026-07-16T23:53:49.878816,15.18698236,.00320827,43.0154,17.0306,332.0044,27.9078,0,U,42758,999,50219,.11653389E-3,.2246E-4,0
FLYING LAPTOP,2017-042G,2026-07-17T07:30:31.440960,15.01320786,.00195971,97.4816,352.7137,25.7451,334.4745,0,U,42831,999,49097,.14415378E-3,.1804E-4,0
ZHANGHENG 1-01 (CSES-1),2018-015C,2026-07-17T06:32:45.051360,15.20623747,.00165725,97.6896,4.5326,157.9595,202.2356,0,U,43194,999,46921,.17671936E-3,.3815E-4,0
SALSAT,2020-068K,2026-07-16T23:14:24.421344,15.30186484,.00093844,97.8858,202.8562,186.4299,173.6821,0,U,46495,999,31991,.1366282E-3,.3909E-4,0
IXPE,2021-121A,2026-07-17T06:00:02.000160,15.10497845,.00073459,0.2312,89.5820,177.1637,255.3058,0,U,49954,999,573,.32537586E-3,.6444E-4,0
SMILE,2026-109A,2026-07-13T23:01:31.580256,0.47500629,.83137076,70.0512,206.6048,286.9544,0.1879,0,U,69123,999,6,0,.936E-5,0
